{"type": "FeatureCollection", "features": [ {"type": "Feature", "properties": {"norad_id": 33153, "name": "INTELSAT 25 (IS-25)", "group": "intelsat", "lat": 2.010018988235575, "lon": -162.7178551348373, "alt_km": 35778.62355382821, "timestamp": "2025-12-10T09:57:44.371958+00:00", "meta": {"OBJECT_NAME": "INTELSAT 25 (IS-25)", "OBJECT_ID": "2008-034A", "EPOCH": "2025-12-09T20:16:17.404896", "MEAN_MOTION": 1.00270258, "ECCENTRICITY": 0.0005379, "INCLINATION": 2.2204, "RA_OF_ASC_NODE": 82.6784, "ARG_OF_PERICENTER": 184.9843, "MEAN_ANOMALY": 83.7399, "EPHEMERIS_TYPE": 0, "CLASSIFICATION_TYPE": "U", "NORAD_CAT_ID": 33153, "ELEMENT_SET_NO": 999, "REV_AT_EPOCH": 6379, "BSTAR": 0, "MEAN_MOTION_DOT": -2.21e-06, "MEAN_MOTION_DDOT": 0}, "tle": {"line1": "1 33153U 08034A   25343.84464589 -.00000221  00000+0  00000+0 0  9999", "line2": "2 33153   2.2204  82.6784 0005379 184.9843  83.7399  1.00270258 63792"}}, "geometry": {"type": "Point", "coordinates": [-162.7178551348373, 2.010018988235575]}}, {"type": "Feature", "properties": {"norad_id": 33376, "name": "GALAXY 19 (G-19)", "group": "intelsat", "lat": 0.01600991951107911, "lon": 131.82709847194738, "alt_km": 35793.11954887097, "timestamp": "2025-12-10T09:57:44.371971+00:00", "meta": {"OBJECT_NAME": "GALAXY 19 (G-19)", "OBJECT_ID": "2008-045A", "EPOCH": "2025-12-10T04:23:38.620032", "MEAN_MOTION": 1.00278274, "ECCENTRICITY": 0.0003016, "INCLINATION": 0.0172, "RA_OF_ASC_NODE": 336.4091, "ARG_OF_PERICENTER": 289.353, "MEAN_ANOMALY": 142.3352, "EPHEMERIS_TYPE": 0, "CLASSIFICATION_TYPE": "U", "NORAD_CAT_ID": 33376, "ELEMENT_SET_NO": 999, "REV_AT_EPOCH": 6300, "BSTAR": 0, "MEAN_MOTION_DOT": -1.37e-06, "MEAN_MOTION_DDOT": 0}, "tle": {"line1": "1 33376U 08045A   25344.18308588 -.00000137  00000+0  00000+0 0  9998", "line2": "2 33376   0.0172 336.4091 0003016 289.3530 142.3352  1.00278274 63000"}}, "geometry": {"type": "Point", "coordinates": [131.82709847194738, 0.01600991951107911]}}, {"type": "Feature", "properties": {"norad_id": 35493, "name": "FM-5", "group": "intelsat", "lat": -0.00684899456308662, "lon": 142.67729117403857, "alt_km": 35784.23230302992, "timestamp": "2025-12-10T09:57:44.371983+00:00", "meta": {"OBJECT_NAME": "FM-5", "OBJECT_ID": "2009-034A", "EPOCH": "2025-12-10T02:10:38.678016", "MEAN_MOTION": 1.00270729, "ECCENTRICITY": 6.09e-05, "INCLINATION": 0.0185, "RA_OF_ASC_NODE": 289.7385, "ARG_OF_PERICENTER": 244.8327, "MEAN_ANOMALY": 211.0208, "EPHEMERIS_TYPE": 0, "CLASSIFICATION_TYPE": "U", "NORAD_CAT_ID": 35493, "ELEMENT_SET_NO": 999, "REV_AT_EPOCH": 4474, "BSTAR": 0, "MEAN_MOTION_DOT": -1.97e-06, "MEAN_MOTION_DDOT": 0}, "tle": {"line1": "1 35493U 09034A   25344.09072544 -.00000197  00000+0  00000+0 0  9995", "line2": "2 35493   0.0185 289.7385 0000609 244.8327 211.0208  1.00270729 44748"}}, "geometry": {"type": "Point", "coordinates": [142.67729117403857, -0.00684899456308662]}}, {"type": "Feature", "properties": {"norad_id": 36097, "name": "INTELSAT 14 (IS-14)", "group": "intelsat", "lat": -0.007510089943016489, "lon": -176.20566556306912, "alt_km": 35785.1431558775, "timestamp": "2025-12-10T09:57:44.371995+00:00", "meta": {"OBJECT_NAME": "INTELSAT 14 (IS-14)", "OBJECT_ID": "2009-064A", "EPOCH": "2025-12-09T20:12:25.275744", "MEAN_MOTION": 1.00270287, "ECCENTRICITY": 0.0002657, "INCLINATION": 0.0097, "RA_OF_ASC_NODE": 353.7968, "ARG_OF_PERICENTER": 272.7981, "MEAN_ANOMALY": 70.3417, "EPHEMERIS_TYPE": 0, "CLASSIFICATION_TYPE": "U", "NORAD_CAT_ID": 36097, "ELEMENT_SET_NO": 999, "REV_AT_EPOCH": 5870, "BSTAR": 0, "MEAN_MOTION_DOT": -2.71e-06, "MEAN_MOTION_DDOT": 0}, "tle": {"line1": "1 36097U 09064A   25343.84195921 -.00000271  00000+0  00000+0 0  9999", "line2": "2 36097   0.0097 353.7968 0002657 272.7981  70.3417  1.00270287 58709"}}, "geometry": {"type": "Point", "coordinates": [-176.20566556306912, -0.007510089943016489]}}, {"type": "Feature", "properties": {"norad_id": 36106, "name": "INTELSAT 15 (IS-15)", "group": "intelsat", "lat": 0.005967013129263374, "lon": -46.00921491798199, "alt_km": 35779.32595928279, "timestamp": "2025-12-10T09:57:44.372008+00:00", "meta": {"OBJECT_NAME": "INTELSAT 15 (IS-15)", "OBJECT_ID": "2009-067A", "EPOCH": "2025-12-10T00:35:38.775840", "MEAN_MOTION": 1.00270865, "ECCENTRICITY": 0.0002455, "INCLINATION": 0.027, "RA_OF_ASC_NODE": 287.2149, "ARG_OF_PERICENTER": 339.4396, "MEAN_ANOMALY": 266.412, "EPHEMERIS_TYPE": 0, "CLASSIFICATION_TYPE": "U", "NORAD_CAT_ID": 36106, "ELEMENT_SET_NO": 999, "REV_AT_EPOCH": 3933, "BSTAR": 0, "MEAN_MOTION_DOT": -1.82e-06, "MEAN_MOTION_DDOT": 0}, "tle": {"line1": "1 36106U 09067A   25344.02475435 -.00000182  00000+0  00000+0 0  9996", "line2": "2 36106   0.0270 287.2149 0002455 339.4396 266.4120  1.00270865 39331"}}, "geometry": {"type": "Point", "coordinates": [-46.00921491798199, 0.005967013129263374]}}, {"type": "Feature", "properties": {"norad_id": 36131, "name": "DIRECTV 12", "group": "intelsat", "lat": 0.01581143978908699, "lon": 126.13138584424142, "alt_km": 35786.94332420361, "timestamp": "2025-12-10T09:57:44.372019+00:00", "meta": {"OBJECT_NAME": "DIRECTV 12", "OBJECT_ID": "2009-075A", "EPOCH": "2025-12-10T04:31:38.802720", "MEAN_MOTION": 1.00278488, "ECCENTRICITY": 8.31e-05, "INCLINATION": 0.0399, "RA_OF_ASC_NODE": 141.5223, "ARG_OF_PERICENTER": 202.9692, "MEAN_ANOMALY": 59.8853, "EPHEMERIS_TYPE": 0, "CLASSIFICATION_TYPE": "U", "NORAD_CAT_ID": 36131, "ELEMENT_SET_NO": 999, "REV_AT_EPOCH": 4465, "BSTAR": 0, "MEAN_MOTION_DOT": -1.01e-06, "MEAN_MOTION_DDOT": 0}, "tle": {"line1": "1 36131U 09075A   25344.18864355 -.00000101  00000+0  00000+0 0  9994", "line2": "2 36131   0.0399 141.5223 0000831 202.9692  59.8853  1.00278488 44652"}}, "geometry": {"type": "Point", "coordinates": [126.13138584424142, 0.01581143978908699]}}, {"type": "Feature", "properties": {"norad_id": 36397, "name": "INTELSAT 16 (IS-16)", "group": "intelsat", "lat": -0.005251644854530551, "lon": 152.5926418934358, "alt_km": 35789.87849015818, "timestamp": "2025-12-10T09:57:44.372031+00:00", "meta": {"OBJECT_NAME": "INTELSAT 16 (IS-16)", "OBJECT_ID": "2010-006A", "EPOCH": "2025-12-09T12:32:17.671200", "MEAN_MOTION": 1.00270281, "ECCENTRICITY": 0.00022839, "INCLINATION": 0.0146, "RA_OF_ASC_NODE": 310.5057, "ARG_OF_PERICENTER": 312.0313, "MEAN_ANOMALY": 287.8475, "EPHEMERIS_TYPE": 0, "CLASSIFICATION_TYPE": "U", "NORAD_CAT_ID": 36397, "ELEMENT_SET_NO": 999, "REV_AT_EPOCH": 5775, "BSTAR": 0, "MEAN_MOTION_DOT": -2.42e-06, "MEAN_MOTION_DDOT": 0}, "tle": {"line1": "1 36397U 10006A   25343.52242675 -.00000242  00000+0  00000+0 0  9992", "line2": "2 36397   0.0146 310.5057 0002283 312.0313 287.8475  1.00270281 57756"}}, "geometry": {"type": "Point", "coordinates": [152.5926418934358, -0.005251644854530551]}}, {"type": "Feature", "properties": {"norad_id": 37185, "name": "XM-5", "group": "intelsat", "lat": -0.008952368236899664, "lon": 113.61291940640989, "alt_km": 35781.65280450058, "timestamp": "2025-12-10T09:57:44.372043+00:00", "meta": {"OBJECT_NAME": "XM-5", "OBJECT_ID": "2010-053A", "EPOCH": "2025-12-10T04:39:38.509344", "MEAN_MOTION": 1.00269464, "ECCENTRICITY": 0.0001519, "INCLINATION": 0.0618, "RA_OF_ASC_NODE": 272.7422, "ARG_OF_PERICENTER": 238.3353, "MEAN_ANOMALY": 242.8089, "EPHEMERIS_TYPE": 0, "CLASSIFICATION_TYPE": "U", "NORAD_CAT_ID": 37185, "ELEMENT_SET_NO": 999, "REV_AT_EPOCH": 5558, "BSTAR": 0, "MEAN_MOTION_DOT": -1.9e-07, "MEAN_MOTION_DDOT": 0}, "tle": {"line1": "1 37185U 10053A   25344.19419571 -.00000019  00000+0  00000+0 0  9997", "line2": "2 37185   0.0618 272.7422 0001519 238.3353 242.8089  1.00269464 55588"}}, "geometry": {"type": "Point", "coordinates": [113.61291940640989, -0.008952368236899664]}}, {"type": "Feature", "properties": {"norad_id": 37238, "name": "INTELSAT 17 (IS-17)", "group": "intelsat", "lat": -0.0068763870914421, "lon": -65.14597718385234, "alt_km": 35777.23772589136, "timestamp": "2025-12-10T09:57:44.372055+00:00", "meta": {"OBJECT_NAME": "INTELSAT 17 (IS-17)", "OBJECT_ID": "2010-065B", "EPOCH": "2025-12-10T00:45:38.639808", "MEAN_MOTION": 1.00272545, "ECCENTRICITY": 0.0002437, "INCLINATION": 0.0135, "RA_OF_ASC_NODE": 288.0536, "ARG_OF_PERICENTER": 333.432, "MEAN_ANOMALY": 254.9533, "EPHEMERIS_TYPE": 0, "CLASSIFICATION_TYPE": "U", "NORAD_CAT_ID": 37238, "ELEMENT_SET_NO": 999, "REV_AT_EPOCH": 5135, "BSTAR": 0, "MEAN_MOTION_DOT": 1e-08, "MEAN_MOTION_DDOT": 0}, "tle": {"line1": "1 37238U 10065B   25344.03169722  .00000001  00000+0  00000+0 0  9992", "line2": "2 37238   0.0135 288.0536 0002437 333.4320 254.9533  1.00272545 51351"}}, "geometry": {"type": "Point", "coordinates": [-65.14597718385234, -0.0068763870914421]}}, {"type": "Feature", "properties": {"norad_id": 37392, "name": "INTELSAT 28 (IS-28)", "group": "intelsat", "lat": 1.2118773556284945, "lon": -162.90974201907977, "alt_km": 35779.13547965128, "timestamp": "2025-12-10T09:57:44.372066+00:00", "meta": {"OBJECT_NAME": "INTELSAT 28 (IS-28)", "OBJECT_ID": "2011-016A", "EPOCH": "2025-12-09T20:16:17.404896", "MEAN_MOTION": 1.00272229, "ECCENTRICITY": 0.0003962, "INCLINATION": 1.3173, "RA_OF_ASC_NODE": 85.0894, "ARG_OF_PERICENTER": 178.4571, "MEAN_ANOMALY": 87.656, "EPHEMERIS_TYPE": 0, "CLASSIFICATION_TYPE": "U", "NORAD_CAT_ID": 37392, "ELEMENT_SET_NO": 999, "REV_AT_EPOCH": 5138, "BSTAR": 0, "MEAN_MOTION_DOT": -2.22e-06, "MEAN_MOTION_DDOT": 0}, "tle": {"line1": "1 37392U 11016A   25343.84464589 -.00000222  00000+0  00000+0 0  9993", "line2": "2 37392   1.3173  85.0894 0003962 178.4571  87.6560  1.00272229 51382"}}, "geometry": {"type": "Point", "coordinates": [-162.90974201907977, 1.2118773556284945]}}]}